[{"OBJECT_NAME":"SDA_1679","OBJECT_ID":"2025-230R","EPOCH":"2026-03-09T17:52:28.680096","MEAN_MOTION":13.85334515,"ECCENTRICITY":0.0004897,"INCLINATION":81.3013,"RA_OF_ASC_NODE":303.8521,"ARG_OF_PERICENTER":108.9978,"MEAN_ANOMALY":251.171,"EPHEMERIS_TYPE":0,"CLASSIFICATION_TYPE":"U","NORAD_CAT_ID":65989,"ELEMENT_SET_NO":999,"REV_AT_EPOCH":2005,"BSTAR":0.00022111439,"MEAN_MOTION_DOT":2.63e-6,"MEAN_MOTION_DDOT":0},{"OBJECT_NAME":"FENGYUN 1C DEB","OBJECT_ID":"1999-025UP","EPOCH":"2026-03-09T01:52:38.574336","MEAN_MOTION":13.96499809,"ECCENTRICITY":0.00756743,"INCLINATION":99.0499,"RA_OF_ASC_NODE":122.7096,"ARG_OF_PERICENTER":144.7312,"MEAN_ANOMALY":247.5952,"EPHEMERIS_TYPE":0,"CLASSIFICATION_TYPE":"U","NORAD_CAT_ID":30182,"ELEMENT_SET_NO":999,"REV_AT_EPOCH":97513,"BSTAR":0.00037204548,"MEAN_MOTION_DOT":4.83e-6,"MEAN_MOTION_DDOT":0}]
